[{"OBJECT_NAME":"SHIJIAN-6 02B (SJ-6 02B)","OBJECT_ID":"2006-046B","EPOCH":"2026-03-14T15:08:45.425184","MEAN_MOTION":15.01025931,"ECCENTRICITY":0.00138156,"INCLINATION":97.7078,"RA_OF_ASC_NODE":103.3261,"ARG_OF_PERICENTER":27.9977,"MEAN_ANOMALY":332.1988,"EPHEMERIS_TYPE":0,"CLASSIFICATION_TYPE":"U","NORAD_CAT_ID":29506,"ELEMENT_SET_NO":999,"REV_AT_EPOCH":5655,"BSTAR":0.00020203615,"MEAN_MOTION_DOT":2.525e-5,"MEAN_MOTION_DDOT":0},{"OBJECT_NAME":"FGRST (GLAST)","OBJECT_ID":"2008-029A","EPOCH":"2026-03-14T11:09:18.783072","MEAN_MOTION":15.23374198,"ECCENTRICITY":0.00077462,"INCLINATION":25.5812,"RA_OF_ASC_NODE":141.917,"ARG_OF_PERICENTER":289.5203,"MEAN_ANOMALY":70.4498,"EPHEMERIS_TYPE":0,"CLASSIFICATION_TYPE":"U","NORAD_CAT_ID":33053,"ELEMENT_SET_NO":999,"REV_AT_EPOCH":98137,"BSTAR":0.00017175128,"MEAN_MOTION_DOT":4.541e-5,"MEAN_MOTION_DDOT":0},{"OBJECT_NAME":"SDO","OBJECT_ID":"2010-005A","EPOCH":"2026-03-14T01:10:43.618944","MEAN_MOTION":1.00275255,"ECCENTRICITY":9.88e-6,"INCLINATION":34.45,"RA_OF_ASC_NODE":87.7821,"ARG_OF_PERICENTER":96.2187,"MEAN_ANOMALY":263.5038,"EPHEMERIS_TYPE":0,"CLASSIFICATION_TYPE":"U","NORAD_CAT_ID":36395,"ELEMENT_SET_NO":999,"REV_AT_EPOCH":5910,"BSTAR":0,"MEAN_MOTION_DOT":-5.7e-7,"MEAN_MOTION_DDOT":0},{"OBJECT_NAME":"CRYOSAT 2","OBJECT_ID":"2010-013A","EPOCH":"2026-03-14T14:12:38.652192","MEAN_MOTION":14.51902128,"ECCENTRICITY":0.00021298,"INCLINATION":92.0231,"RA_OF_ASC_NODE":254.3759,"ARG_OF_PERICENTER":91.8306,"MEAN_ANOMALY":268.3146,"EPHEMERIS_TYPE":0,"CLASSIFICATION_TYPE":"U","NORAD_CAT_ID":36508,"ELEMENT_SET_NO":999,"REV_AT_EPOCH":84435,"BSTAR":7.903223e-5,"MEAN_MOTION_DOT":3.21e-6,"MEAN_MOTION_DDOT":0},{"OBJECT_NAME":"X-SAT","OBJECT_ID":"2011-015C","EPOCH":"2026-03-14T14:06:07.223904","MEAN_MOTION":14.25173864,"ECCENTRICITY":0.00127953,"INCLINATION":98.3434,"RA_OF_ASC_NODE":55.1602,"ARG_OF_PERICENTER":261.0234,"MEAN_ANOMALY":98.9499,"EPHEMERIS_TYPE":0,"CLASSIFICATION_TYPE":"U","NORAD_CAT_ID":37389,"ELEMENT_SET_NO":999,"REV_AT_EPOCH":77420,"BSTAR":-1.8369658e-5,"MEAN_MOTION_DOT":-8.4e-7,"MEAN_MOTION_DDOT":0},{"OBJECT_NAME":"GCOM-W1 (SHIZUKU)","OBJECT_ID":"2012-025A","EPOCH":"2026-03-14T09:59:47.641632","MEAN_MOTION":14.57106121,"ECCENTRICITY":0.00014206,"INCLINATION":98.2058,"RA_OF_ASC_NODE":15.4065,"ARG_OF_PERICENTER":73.0931,"MEAN_ANOMALY":41.139,"EPHEMERIS_TYPE":0,"CLASSIFICATION_TYPE":"U","NORAD_CAT_ID":38337,"ELEMENT_SET_NO":999,"REV_AT_EPOCH":73523,"BSTAR":0.00016331808,"MEAN_MOTION_DOT":6.91e-6,"MEAN_MOTION_DDOT":0},{"OBJECT_NAME":"NUSTAR","OBJECT_ID":"2012-031A","EPOCH":"2026-03-14T14:00:01.999872","MEAN_MOTION":15.07798277,"ECCENTRICITY":0.00072711,"INCLINATION":6.0284,"RA_OF_ASC_NODE":23.2483,"ARG_OF_PERICENTER":152.4513,"MEAN_ANOMALY":355.3092,"EPHEMERIS_TYPE":0,"CLASSIFICATION_TYPE":"U","NORAD_CAT_ID":38358,"ELEMENT_SET_NO":999,"REV_AT_EPOCH":130,"BSTAR":0.00063428445,"MEAN_MOTION_DOT":0.00010864,"MEAN_MOTION_DDOT":0},{"OBJECT_NAME":"NEOSSAT","OBJECT_ID":"2013-009D","EPOCH":"2026-03-14T10:26:03.117984","MEAN_MOTION":14.35788455,"ECCENTRICITY":0.00113453,"INCLINATION":98.4146,"RA_OF_ASC_NODE":255.7268,"ARG_OF_PERICENTER":163.4386,"MEAN_ANOMALY":196.7173,"EPHEMERIS_TYPE":0,"CLASSIFICATION_TYPE":"U","NORAD_CAT_ID":39089,"ELEMENT_SET_NO":999,"REV_AT_EPOCH":68314,"BSTAR":9.5269701e-5,"MEAN_MOTION_DOT":2.33e-6,"MEAN_MOTION_DDOT":0},{"OBJECT_NAME":"BRITE-AUSTRIA","OBJECT_ID":"2013-009F","EPOCH":"2026-03-14T11:31:43.002912","MEAN_MOTION":14.3649938,"ECCENTRICITY":0.00106483,"INCLINATION":98.3961,"RA_OF_ASC_NODE":255.268,"ARG_OF_PERICENTER":157.2399,"MEAN_ANOMALY":202.9262,"EPHEMERIS_TYPE":0,"CLASSIFICATION_TYPE":"U","NORAD_CAT_ID":39091,"ELEMENT_SET_NO":999,"REV_AT_EPOCH":68345,"BSTAR":0.00010501542,"MEAN_MOTION_DOT":2.66e-6,"MEAN_MOTION_DDOT":0},{"OBJECT_NAME":"IRIS","OBJECT_ID":"2013-033A","EPOCH":"2026-03-14T13:03:19.952352","MEAN_MOTION":14.85663754,"ECCENTRICITY":0.00232162,"INCLINATION":97.9397,"RA_OF_ASC_NODE":273.0887,"ARG_OF_PERICENTER":268.7027,"MEAN_ANOMALY":91.1529,"EPHEMERIS_TYPE":0,"CLASSIFICATION_TYPE":"U","NORAD_CAT_ID":39197,"ELEMENT_SET_NO":999,"REV_AT_EPOCH":68632,"BSTAR":0.00019978702,"MEAN_MOTION_DOT":1.683e-5,"MEAN_MOTION_DDOT":0},{"OBJECT_NAME":"HISAKI (SPRINT-A)","OBJECT_ID":"2013-049A","EPOCH":"2026-03-14T09:58:52.031136","MEAN_MOTION":13.55531214,"ECCENTRICITY":0.01365759,"INCLINATION":29.7219,"RA_OF_ASC_NODE":341.8316,"ARG_OF_PERICENTER":328.4026,"MEAN_ANOMALY":30.8406,"EPHEMERIS_TYPE":0,"CLASSIFICATION_TYPE":"U","NORAD_CAT_ID":39253,"ELEMENT_SET_NO":999,"REV_AT_EPOCH":61855,"BSTAR":8.2331942e-5,"MEAN_MOTION_DOT":1.25e-6,"MEAN_MOTION_DDOT":0},{"OBJECT_NAME":"CASSIOPE","OBJECT_ID":"2013-055A","EPOCH":"2026-03-14T13:26:33.365760","MEAN_MOTION":15.19173317,"ECCENTRICITY":0.03137041,"INCLINATION":80.9196,"RA_OF_ASC_NODE":181.087,"ARG_OF_PERICENTER":19.9821,"MEAN_ANOMALY":341.3371,"EPHEMERIS_TYPE":0,"CLASSIFICATION_TYPE":"U","NORAD_CAT_ID":39265,"ELEMENT_SET_NO":999,"REV_AT_EPOCH":65327,"BSTAR":0.00060556812,"MEAN_MOTION_DOT":0.00050524,"MEAN_MOTION_DDOT":-2.87997e-7},{"OBJECT_NAME":"STSAT-3","OBJECT_ID":"2013-066G","EPOCH":"2026-03-14T14:36:30.000384","MEAN_MOTION":15.0212859,"ECCENTRICITY":0.00109895,"INCLINATION":97.6062,"RA_OF_ASC_NODE":45.136,"ARG_OF_PERICENTER":357.1936,"MEAN_ANOMALY":2.9225,"EPHEMERIS_TYPE":0,"CLASSIFICATION_TYPE":"U","NORAD_CAT_ID":39422,"ELEMENT_SET_NO":999,"REV_AT_EPOCH":67000,"BSTAR":0.00029424275,"MEAN_MOTION_DOT":3.814e-5,"MEAN_MOTION_DDOT":0},{"OBJECT_NAME":"SWARM B","OBJECT_ID":"2013-067A","EPOCH":"2026-03-14T12:22:45.018048","MEAN_MOTION":15.27912188,"ECCENTRICITY":0.00036406,"INCLINATION":87.7492,"RA_OF_ASC_NODE":11.0277,"ARG_OF_PERICENTER":83.6328,"MEAN_ANOMALY":276.5335,"EPHEMERIS_TYPE":0,"CLASSIFICATION_TYPE":"U","NORAD_CAT_ID":39451,"ELEMENT_SET_NO":999,"REV_AT_EPOCH":66878,"BSTAR":0.00021409694,"MEAN_MOTION_DOT":5.863e-5,"MEAN_MOTION_DDOT":0},{"OBJECT_NAME":"SWARM A","OBJECT_ID":"2013-067B","EPOCH":"2026-03-14T13:38:54.982752","MEAN_MOTION":15.48874629,"ECCENTRICITY":0.00031584,"INCLINATION":87.3285,"RA_OF_ASC_NODE":91.3494,"ARG_OF_PERICENTER":94.8428,"MEAN_ANOMALY":265.3193,"EPHEMERIS_TYPE":0,"CLASSIFICATION_TYPE":"U","NORAD_CAT_ID":39452,"ELEMENT_SET_NO":999,"REV_AT_EPOCH":69159,"BSTAR":0.00027345402,"MEAN_MOTION_DOT":0.00014769,"MEAN_MOTION_DDOT":0},{"OBJECT_NAME":"SWARM C","OBJECT_ID":"2013-067C","EPOCH":"2026-03-14T13:38:45.523680","MEAN_MOTION":15.48875501,"ECCENTRICITY":0.00031563,"INCLINATION":87.3283,"RA_OF_ASC_NODE":89.9306,"ARG_OF_PERICENTER":95.1762,"MEAN_ANOMALY":264.9858,"EPHEMERIS_TYPE":0,"CLASSIFICATION_TYPE":"U","NORAD_CAT_ID":39453,"ELEMENT_SET_NO":999,"REV_AT_EPOCH":69155,"BSTAR":0.00027543594,"MEAN_MOTION_DOT":0.00014876,"MEAN_MOTION_DDOT":0},{"OBJECT_NAME":"BRITE-CA1 (TORONTO)","OBJECT_ID":"2014-033L","EPOCH":"2026-03-14T07:37:46.532352","MEAN_MOTION":14.72479469,"ECCENTRICITY":0.0078101,"INCLINATION":97.9574,"RA_OF_ASC_NODE":204.0901,"ARG_OF_PERICENTER":219.9071,"MEAN_ANOMALY":139.6379,"EPHEMERIS_TYPE":0,"CLASSIFICATION_TYPE":"U","NORAD_CAT_ID":40020,"ELEMENT_SET_NO":999,"REV_AT_EPOCH":62825,"BSTAR":0.0002456148,"MEAN_MOTION_DOT":1.581e-5,"MEAN_MOTION_DDOT":0}]
