SHIJIAN-6 02B (SJ-6 02B)
1 29506U 06046B   26073.63108131  .00002525  00000+0  20204-3 0  9993
2 29506  97.7078 103.3261 0013815  27.9977 332.1988 15.01025931 56559
FGRST (GLAST)           
1 33053U 08029A   26073.46480073  .00004541  00000+0  17175-3 0  9990
2 33053  25.5812 141.9170 0007746 289.5203  70.4498 15.23374198981378
SDO                     
1 36395U 10005A   26073.04911596 -.00000057  00000+0  00000+0 0  9996
2 36395  34.4500  87.7821 0000098  96.2187 263.5038  1.00275255 59106
CRYOSAT 2               
1 36508U 10013A   26073.59211403  .00000321  00000+0  79032-4 0  9990
2 36508  92.0231 254.3759 0002129  91.8306 268.3146 14.51902128844354
X-SAT                   
1 37389U 11015C   26073.58758361 -.00000084  00000+0 -18370-4 0  9995
2 37389  98.3434  55.1602 0012795 261.0234  98.9499 14.25173864774203
GCOM-W1 (SHIZUKU)       
1 38337U 12025A   26073.41652363  .00000691  00000+0  16332-3 0  9995
2 38337  98.2058  15.4065 0001420  73.0931  41.1390 14.57106121735235
NUSTAR                  
1 38358U 12031A   26073.58335648  .00010864  00000+0  63428-3 0  9998
2 38358   6.0284  23.2483 0007271 152.4513 355.3092 15.07798277  1303
NEOSSAT                 
1 39089U 13009D   26073.43475831  .00000233  00000+0  95270-4 0  9999
2 39089  98.4146 255.7268 0011345 163.4386 196.7173 14.35788455683149
BRITE-AUSTRIA           
1 39091U 13009F   26073.48035883  .00000266  00000+0  10502-3 0  9996
2 39091  98.3961 255.2680 0010648 157.2399 202.9262 14.36499380683459
IRIS                    
1 39197U 13033A   26073.54398093  .00001683  00000+0  19979-3 0  9993
2 39197  97.9397 273.0887 0023216 268.7027  91.1529 14.85663754686327
HISAKI (SPRINT-A)       
1 39253U 13049A   26073.41587999  .00000125  00000+0  82332-4 0  9998
2 39253  29.7219 341.8316 0136575 328.4026  30.8406 13.55531214618558
CASSIOPE                
1 39265U 13055A   26073.56010840  .00050524 -28800-6  60557-3 0  9998
2 39265  80.9196 181.0870 0313704  19.9821 341.3371 15.19173317653276
STSAT-3                 
1 39422U 13066G   26073.60868056  .00003814  00000+0  29424-3 0  9992
2 39422  97.6062  45.1360 0010989 357.1936   2.9225 15.02128590670008
SWARM B                 
1 39451U 13067A   26073.51579882  .00005863  00000+0  21410-3 0  9994
2 39451  87.7492  11.0277 0003640  83.6328 276.5335 15.27912188668782
SWARM A                 
1 39452U 13067B   26073.56869193  .00014769  00000+0  27345-3 0  9995
2 39452  87.3285  91.3494 0003158  94.8428 265.3193 15.48874629691593
SWARM C                 
1 39453U 13067C   26073.56858245  .00014876  00000+0  27544-3 0  9992
2 39453  87.3283  89.9306 0003156  95.1762 264.9858 15.48875501691559
BRITE-CA1 (TORONTO)     
1 40020U 14033L   26073.31789968  .00001581  00000+0  24561-3 0  9991
2 40020  97.9574 204.0901 0078101 219.9071 139.6379 14.72479469628255
